[{"OBJECT_NAME":"TIANMU-1 07","OBJECT_ID":"2023-101A","EPOCH":"2026-03-06T13:47:20.454720","MEAN_MOTION":15.29118809,"ECCENTRICITY":0.00046097,"INCLINATION":97.2728,"RA_OF_ASC_NODE":118.5929,"ARG_OF_PERICENTER":142.4105,"MEAN_ANOMALY":217.7458,"EPHEMERIS_TYPE":0,"CLASSIFICATION_TYPE":"U","NORAD_CAT_ID":57399,"ELEMENT_SET_NO":999,"REV_AT_EPOCH":14596,"BSTAR":0.00029794732,"MEAN_MOTION_DOT":8.352e-5,"MEAN_MOTION_DDOT":0},{"OBJECT_NAME":"STARLINK-36412","OBJECT_ID":"2026-012AB","EPOCH":"2026-03-09T00:36:39.502080","MEAN_MOTION":15.27589895,"ECCENTRICITY":0.00070431,"INCLINATION":43.0014,"RA_OF_ASC_NODE":317.8493,"ARG_OF_PERICENTER":233.6209,"MEAN_ANOMALY":126.3993,"EPHEMERIS_TYPE":0,"CLASSIFICATION_TYPE":"U","NORAD_CAT_ID":67518,"ELEMENT_SET_NO":999,"REV_AT_EPOCH":766,"BSTAR":0.0010901534,"MEAN_MOTION_DOT":0.00029885,"MEAN_MOTION_DDOT":0}]
